LEMUR-2-JIN-LUEN        
1 43182U 18014C   26068.72674412  .00269889  00000+0  14690-2 0  9990
2 43182  97.5433 359.0029 0003472 144.7507 215.3989 15.79211945445478
STARLINK-36438          
1 67625U 26020J   26067.59577205  .00198789  00000+0  11915-2 0  9997
2 67625  42.9985 148.8096 0002100 268.5658  91.4971 15.76438023  5919
