[{"OBJECT_NAME":"LEMUR-2-JIN-LUEN","OBJECT_ID":"2018-014C","EPOCH":"2026-03-09T17:26:30.692832","MEAN_MOTION":15.79211945,"ECCENTRICITY":0.00034721,"INCLINATION":97.5433,"RA_OF_ASC_NODE":359.0029,"ARG_OF_PERICENTER":144.7507,"MEAN_ANOMALY":215.3989,"EPHEMERIS_TYPE":0,"CLASSIFICATION_TYPE":"U","NORAD_CAT_ID":43182,"ELEMENT_SET_NO":999,"REV_AT_EPOCH":44547,"BSTAR":0.0014690021,"MEAN_MOTION_DOT":0.00269889,"MEAN_MOTION_DDOT":0},{"OBJECT_NAME":"STARLINK-36438","OBJECT_ID":"2026-020J","EPOCH":"2026-03-08T14:17:54.705120","MEAN_MOTION":15.76438023,"ECCENTRICITY":0.00021006,"INCLINATION":42.9985,"RA_OF_ASC_NODE":148.8096,"ARG_OF_PERICENTER":268.5658,"MEAN_ANOMALY":91.4971,"EPHEMERIS_TYPE":0,"CLASSIFICATION_TYPE":"U","NORAD_CAT_ID":67625,"ELEMENT_SET_NO":999,"REV_AT_EPOCH":591,"BSTAR":0.0011915082,"MEAN_MOTION_DOT":0.00198789,"MEAN_MOTION_DDOT":0}]
